LEMUR-2-ROUNDTRIPPER    
1 62711U 25009DG  26197.16729119  .00004268  00000+0  31136-3 0  9990
2 62711  97.7251 279.8114 0004487  62.0486 298.1193 15.04240391 81989
LEMUR-2-MYNAMEISJEFF    
1 62712U 25009DH  26196.76665947  .00004503  00000+0  32837-3 0  9995
2 62712  97.7301 279.8094 0004115  96.2499 263.9195 15.04228449 81920
LEMUR-2-LEIA-PHILIP     
1 63246U 25052AN  26197.20582933  .00000038  00000+0  81854-5 0  9993
2 63246  97.6803  88.6647 0005093 117.2650 242.9092 14.97391818 73014
LEMUR-2-LIA-MARTIN      
1 63248U 25052AQ  26197.19995241  .00001694  00000+0  14826-3 0  9995
2 63248  97.6864  89.1794 0005247  87.9302 272.2521 14.98033914 73025
LEMUR-2-DELOITTE-1      
1 63259U 25052BB  26197.24738122  .00002289  00000+0  19988-3 0  9991
2 63259  97.6880  89.5559 0002598  64.8195 295.3297 14.97786748 73045
LEMUR-2-EMERSONROSE     
1 63261U 25052BD  26197.19376419  .00002427  00000+0  20361-3 0  9996
2 63261  97.6884  90.1187 0002674  59.1899 300.9587 14.99295828 73085
LEMUR-2-MARACHE-FRAN    
1 63262U 25052BE  26197.21579274  .00001576  00000+0  13043-3 0  9997
2 63262  97.6830  90.5088 0005288 248.3368 111.7292 15.00318757 73113
LEMUR-2-THEFALCONER     
1 63264U 25052BG  26197.21117392  .00000984  00000+0  89192-4 0  9999
2 63264  97.6827  89.1100 0000320 272.4617  87.6568 14.97565040 73039
LEMUR-2-UNTITLED-SC     
1 63351U 25061A   26197.17753479  .00001690  00000+0  97364-4 0  9998
2 63351  97.5657 172.3340 0019291 159.8388 200.3609 15.13649019 71976
LEMUR-2-ESPERANZA       
1 63352U 25061B   26196.88838929  .00001751  00000+0  10045-3 0  9998
2 63352  97.5664 172.1471 0018885 159.9774 200.2202 15.13754973 71936
LEMUR-2-KREMPEL-BRO2    
1 63353U 25061C   26196.97324945  .00001631  00000+0  92652-4 0  9999
2 63353  97.5706 172.8015 0020069 152.6735 207.5557 15.14181507 71963
LEMUR-2-THERMORAPTOR    
1 63354U 25061D   26196.88768536  .00002072  00000+0  11648-3 0  9993
2 63354  97.5712 172.7977 0019789 151.8094 208.4213 15.14264291 71953
LEMUR-2-NEUROSPICY      
1 63355U 25061E   26197.18752044  .00001548  00000+0  87740-4 0  9999
2 63355  97.5641 172.6997 0017603 153.6477 206.5653 15.14384106 72006
LEMUR-2-TILLINFINITY    
1 63356U 25061F   26196.88136137  .00002199  00000+0  12104-3 0  9999
2 63356  97.5625 172.7060 0019137 143.6124 216.6413 15.14967400 71989
LEMUR-2-KREMPEL-BRO1    
1 63357U 25061G   26196.92455596  .00001722  00000+0  96037-4 0  9997
2 63357  97.5626 172.6569 0019755 144.8713 215.3826 15.14774664 71989
LEMUR-2-LANGER2SPACE    
1 63358U 25061H   26196.89075938  .00002014  00000+0  11277-3 0  9999
2 63358  97.5633 172.4259 0017462 152.9152 207.2994 15.14467754 71965
LEMUR-2-BALTO           
1 63395U 25052BH  26197.20012109  .00002308  00000+0  18859-3 0  9996
2 63395  97.6927  90.4830 0005072 323.3360  36.7515 15.00368807 73113
LEMUR-2-KRISH           
1 64561U 25135AK  26197.23024705  .00001637  00000+0  14947-3 0  9990
2 64561  97.7774 311.9139 0001255  96.3399 263.7966 14.96451935 58261
LEMUR-2-HUBBLE-4        
1 64565U 25135AP  26197.28001286  .00000716  00000+0  73057-4 0  9993
2 64565  97.7720 310.8494 0002753 159.3037 200.8294 14.93687646 58219
LEMUR-2-SEJONG-2        
1 64586U 25135BL  26197.31780843  .00002080  00000+0  18629-3 0  9992
2 64586  97.7709 312.1461 0004041 213.4590 146.6377 14.96916393 58302
LEMUR-2-HUBBLE-5        
1 64840U 25135BT  26197.28846478  .00000509  00000+0  52867-4 0  9995
2 64840  97.7741 311.5280 0004385 230.7774 129.3057 14.94215156 58254
LEMUR-2-KARENDARRELL    
1 64841U 25135BU  26196.79663076  .00004305  00000+0  34587-3 0  9998
2 64841  97.7719 312.9676 0012499 102.9205 257.3415 15.00505264 58304
LEMUR-2-LUCILLE-ROSE    
1 65403U 25135BV  26197.30357854  .00003119  00000+0  25193-3 0  9990
2 65403  97.7711 313.5095 0015031 185.6878 174.4177 15.00495624 53006
LEMUR-2-AFFIE-WAUWIE    
1 66295U 25248C   26196.36935946  .00012792  00000+0  46577-3 0  9990
2 66295  45.3887 322.1687 0008766 251.4181 108.5756 15.28256430 38901
OTTER SDM               
1 66678U 25276N   26197.15060765  .00003546  00000+0  16750-3 0  9999
2 66678  97.4204 270.1502 0004338 249.3545 110.7225 15.20063289 34818
LEMUR-2-STAS-GORBUK     
1 66686U 25276W   26197.23813571  .00002695  00000+0  12957-3 0  9997
2 66686  97.4238 270.2880 0003660 242.8310 117.2552 15.19664199 34820
LEMUR-2-TEODOR          
1 66768U 25276DG  26197.18998944  .00002851  00000+0  13037-3 0  9994
2 66768  97.4143 270.5138 0002197  87.7536 272.3951 15.21342759 34852
LEMUR-2-LAILA           
1 66776U 25276DQ  26197.15964327  .00003001  00000+0  13619-3 0  9992
2 66776  97.4166 270.6230 0002921  92.6922 267.4649 15.21569099 34856
LEMUR-2-CELIJO-SB-PK    
1 66781U 25276DW  26197.18531545  .00002988  00000+0  24295-3 0  9998
2 66781  97.5192 267.0056 0006925  61.9431 298.2493 15.00290087 26978
LEMUR-2-FINNIAN         
1 66782U 25276DX  26197.15537353  .00001457  00000+0  11979-3 0  9994
2 66782  97.5343 267.2469 0007097 355.3535   4.7622 15.00622308 24341
